{
  "norad_id": 59338,
  "name": "STARLINK-31550",
  "history": [
    {
      "epoch": "2026-04-14T09:10:22.437696Z",
      "apogee_km": 483.71437119446455,
      "perigee_km": 482.38673140328865,
      "latitude_deg": 4.82210108892656e-06,
      "longitude_deg": 5.70428406962483,
      "height_km": 482.79162157521256,
      "semi_major_axis_km": 6861.187551298876,
      "eccentricity": 9.675e-05,
      "inclination_deg": 43.0031,
      "raan_deg": 345.8572,
      "arg_perigee_deg": 273.075,
      "mean_anomaly_deg": 86.9991,
      "mean_motion_rev_day": 15.27579514
    },
    {
      "epoch": "2026-04-15T00:51:56.685600Z",
      "apogee_km": 483.5481396763871,
      "perigee_km": 482.58578720847527,
      "latitude_deg": 4.715126392411912e-06,
      "longitude_deg": 125.97300304838019,
      "height_km": 482.78364516756943,
      "semi_major_axis_km": 6861.203963442431,
      "eccentricity": 7.013e-05,
      "inclination_deg": 43.0054,
      "raan_deg": 342.1631,
      "arg_perigee_deg": 277.1647,
      "mean_anomaly_deg": 82.9125,
      "mean_motion_rev_day": 15.27574033
    },
    {
      "epoch": "2026-04-16T08:15:04.212000Z",
      "apogee_km": 483.6790298345468,
      "perigee_km": 482.44675833356905,
      "latitude_deg": -6.930606522004337e-05,
      "longitude_deg": 6.516313142202272,
      "height_km": 482.8799947822614,
      "semi_major_axis_km": 6861.199894084058,
      "eccentricity": 8.98e-05,
      "inclination_deg": 43.0058,
      "raan_deg": 334.7768,
      "arg_perigee_deg": 266.2605,
      "mean_anomaly_deg": 93.8143,
      "mean_motion_rev_day": 15.27575392
    },
    {
      "epoch": "2026-04-17T21:54:49.521024Z",
      "apogee_km": 483.99933878974025,
      "perigee_km": 482.1409122277246,
      "latitude_deg": 3.047496705236814e-05,
      "longitude_deg": 151.17008679225077,
      "height_km": 482.9564498336599,
      "semi_major_axis_km": 6861.207125508732,
      "eccentricity": 0.00013543,
      "inclination_deg": 43.0035,
      "raan_deg": 325.916,
      "arg_perigee_deg": 263.2451,
      "mean_anomaly_deg": 96.8247,
      "mean_motion_rev_day": 15.27572977
    },
    {
      "epoch": "2026-04-18T21:27:09.688896Z",
      "apogee_km": 484.68869165679916,
      "perigee_km": 481.49410371483555,
      "latitude_deg": 1.4674060854642757e-05,
      "longitude_deg": 151.57662750462035,
      "height_km": 482.0084745603334,
      "semi_major_axis_km": 6861.228397685817,
      "eccentricity": 0.0002328,
      "inclination_deg": 43.005,
      "raan_deg": 320.3733,
      "arg_perigee_deg": 302.6073,
      "mean_anomaly_deg": 57.4554,
      "mean_motion_rev_day": 15.27565873
    },
    {
      "epoch": "2026-04-19T20:59:31.310016Z",
      "apogee_km": 483.93589358574627,
      "perigee_km": 482.18903220249376,
      "latitude_deg": -1.8141526849299814e-05,
      "longitude_deg": 151.98017710607957,
      "height_km": 482.0676429841734,
      "semi_major_axis_km": 6861.19946289412,
      "eccentricity": 0.0001273,
      "inclination_deg": 43.0078,
      "raan_deg": 314.8337,
      "arg_perigee_deg": 332.0838,
      "mean_anomaly_deg": 27.9945,
      "mean_motion_rev_day": 15.27575536
    },
    {
      "epoch": "2026-04-20T06:24:27.760608Z",
      "apogee_km": 484.12564271085375,
      "perigee_km": 482.01513531799174,
      "latitude_deg": -1.95751194314187e-05,
      "longitude_deg": 8.144575761703994,
      "height_km": 482.57745837890093,
      "semi_major_axis_km": 6861.207389014422,
      "eccentricity": 0.0001538,
      "inclination_deg": 43.0063,
      "raan_deg": 312.62,
      "arg_perigee_deg": 284.8498,
      "mean_anomaly_deg": 75.2183,
      "mean_motion_rev_day": 15.27572889
    },
    {
      "epoch": "2026-04-21T05:56:48.259392Z",
      "apogee_km": 483.62881914905483,
      "perigee_km": 482.4930164457428,
      "latitude_deg": 2.823489026591957e-05,
      "longitude_deg": 8.55369936104504,
      "height_km": 482.42418336209556,
      "semi_major_axis_km": 6861.197917797399,
      "eccentricity": 8.277e-05,
      "inclination_deg": 43.0063,
      "raan_deg": 307.0812,
      "arg_perigee_deg": 316.7226,
      "mean_anomaly_deg": 43.3561,
      "mean_motion_rev_day": 15.27576052
    },
    {
      "epoch": "2026-04-22T19:36:32.442624Z",
      "apogee_km": 483.65967777204696,
      "perigee_km": 482.4068280838628,
      "latitude_deg": -2.5588996704216234e-05,
      "longitude_deg": 153.2099066218918,
      "height_km": 482.4554541827395,
      "semi_major_axis_km": 6861.170252927955,
      "eccentricity": 9.13e-05,
      "inclination_deg": 43.0057,
      "raan_deg": 298.2183,
      "arg_perigee_deg": 304.4792,
      "mean_anomaly_deg": 55.5973,
      "mean_motion_rev_day": 15.27585291
    },
    {
      "epoch": "2026-04-22T19:36:32.443488Z",
      "apogee_km": 483.6595405486414,
      "perigee_km": 482.40696530726746,
      "latitude_deg": -2.688647517949828e-05,
      "longitude_deg": 153.20990162862546,
      "height_km": 482.45553185501313,
      "semi_major_axis_km": 6861.170252927955,
      "eccentricity": 9.128e-05,
      "inclination_deg": 43.0057,
      "raan_deg": 298.2183,
      "arg_perigee_deg": 304.4792,
      "mean_anomaly_deg": 55.5973,
      "mean_motion_rev_day": 15.27585291
    }
  ]
}